STARLINK-32448          
1 62206U 24229Q   26068.54887050  .00033279  00000+0  12129-2 0  9994
2 62206  43.0029 271.1821 0001366 264.9409  95.1286 15.27594975 70549
FLOCK 4G-2              
1 62661U 25009BE  26068.66207492  .00013752  00000+0  51068-3 0  9995
2 62661  97.4044 151.2221 0003181 329.2677  30.8376 15.27675260121321
